STARLINK-2634
1 28445C 21040T   21325.14096793  .00003826  00000-0  25648-3 0  3254
2 28445  53.0564  27.5901 0001318  62.3139 191.3568 15.06378992    15
